{
    "links": {
        "self": "http://www.neowsapp.com/rest/v1/neo/3653343?api_key=iIulBulltgU6a56xZRHN4H3l9WmuAYTsLGpBGhQ2"
    },
    "id": "3653343",
    "neo_reference_id": "3653343",
    "name": "(2013 UG10)",
    "designation": "2013 UG10",
    "nasa_jpl_url": "http://ssd.jpl.nasa.gov/sbdb.cgi?sstr=3653343",
    "absolute_magnitude_h": 22.7,
    "estimated_diameter": {
        "kilometers": {
            "estimated_diameter_min": 0.0766575574,
            "estimated_diameter_max": 0.1714115092
        },
        "meters": {
            "estimated_diameter_min": 76.6575573531,
            "estimated_diameter_max": 171.4115092306
        },
        "miles": {
            "estimated_diameter_min": 0.0476327831,
            "estimated_diameter_max": 0.1065101409
        },
        "feet": {
            "estimated_diameter_min": 251.5011804664,
            "estimated_diameter_max": 562.3737359442
        }
    },
    "is_potentially_hazardous_asteroid": false,
    "close_approach_data": [
        {
            "close_approach_date": "2013-10-13",
            "close_approach_date_full": "2013-Oct-13 10:23",
            "epoch_date_close_approach": 1381659780000,
            "relative_velocity": {
                "kilometers_per_second": "12.2079044258",
                "kilometers_per_hour": "43948.455932777",
                "miles_per_hour": "27307.861410008"
            },
            "miss_distance": {
                "astronomical": "0.1292489217",
                "lunar": "50.2778305413",
                "kilometers": "19335363.386116779",
                "miles": "12014437.6912543902"
            },
            "orbiting_body": "Earth"
        },
        {
            "close_approach_date": "2167-09-13",
            "close_approach_date_full": "2167-Sep-13 01:59",
            "epoch_date_close_approach": 6238778340000,
            "relative_velocity": {
                "kilometers_per_second": "12.4283536847",
                "kilometers_per_hour": "44742.073264879",
                "miles_per_hour": "27800.9843572799"
            },
            "miss_distance": {
                "astronomical": "0.2898821017",
                "lunar": "112.7641375613",
                "kilometers": "43365744.965443379",
                "miles": "26946224.4084974702"
            },
            "orbiting_body": "Earth"
        }
    ],
    "orbital_data": {
        "orbit_id": "9",
        "orbit_determination_date": "2017-04-06 08:43:54",
        "first_observation_date": "2013-10-31",
        "last_observation_date": "2013-12-01",
        "data_arc_in_days": 31,
        "observations_used": 33,
        "orbit_uncertainty": "7",
        "minimum_orbit_intersection": ".0841788",
        "jupiter_tisserand_invariant": "3.117",
        "epoch_osculation": "2459000.5",
        "eccentricity": ".5890581257526826",
        "semi_major_axis": "2.57913546192858",
        "inclination": "14.99409975202636",
        "ascending_node_longitude": "22.3255033203546",
        "orbital_period": "1512.898025731188",
        "perihelion_distance": "1.059874760662651",
        "perihelion_argument": "336.6387784766903",
        "aphelion_distance": "4.098396163194508",
        "perihelion_time": "2459596.835487808820",
        "mean_anomaly": "218.0996392619262",
        "mean_motion": ".2379539095677059",
        "equinox": "J2000",
        "orbit_class": {
            "orbit_class_type": "AMO",
            "orbit_class_description": "Near-Earth asteroid orbits similar to that of 1221 Amor",
            "orbit_class_range": "1.017 AU < q (perihelion) < 1.3 AU"
        }
    },
    "is_sentry_object": false
}